ONEWEB-0495             
1 54115U 22138C   26171.39786788  .00000131  00000+0  29524-3 0  9994
2 54115  87.9172 304.3310 0001365 113.9166 246.2110 13.19725362177244
ONEWEB-0497             
1 54116U 22138D   26171.33468825  .00000067  00000+0  13395-3 0  9995
2 54116  87.9180 304.3356 0001822 101.4722 258.6615 13.19724613177225
ONEWEB-0499             
1 54117U 22138E   26171.39391380  .00000083  00000+0  17479-3 0  9998
2 54117  87.9170 304.3327 0001634  99.6652 260.4665 13.19726800177242
ONEWEB-0500             
1 54118U 22138F   26171.39628707  .00000139  00000+0  31573-3 0  9998
2 54118  87.9174 304.3265 0001998 100.6616 259.4742 13.19724849177250
ONEWEB-0501             
1 54119U 22138G   26171.35048176  .00000043  00000+0  74982-4 0  9997
2 54119  87.9182 304.3354 0001489 107.5506 252.5789 13.19723616177221
ONEWEB-0502             
1 54120U 22138H   26171.33626116  .00000049  00000+0  90009-4 0  9997
2 54120  87.9182 304.3274 0001602  97.6155 262.5160 13.19723777177244
ONEWEB-0503             
1 54121U 22138J   26171.40102700  .00000080  00000+0  16778-3 0  9999
2 54121  87.9185 304.3205 0001916  91.3899 268.7453 13.19725456177245
ONEWEB-0504             
1 54122U 22138K   26171.38839392  .00000102  00000+0  22160-3 0  9998
2 54122  87.9181 304.3275 0001650  97.8200 262.3120 13.19725508177251
ONEWEB-0505             
1 54123U 22138L   26171.38523324  .00000082  00000+0  17194-3 0  9992
2 54123  87.9181 304.3289 0001399 103.1844 256.9445 13.19726153177236
ONEWEB-0506             
1 54124U 22138M   26171.43576985  .00000035  00000+0  55008-4 0  9995
2 54124  87.9182 304.3164 0001578 103.8225 256.3083 13.19724578177230
ONEWEB-0507             
1 54125U 22138N   26171.38049551  .00000095  00000+0  20613-3 0  9993
2 54125  87.9173 304.3391 0001711 103.3346 256.7978 13.19725770177277
ONEWEB-0508             
1 54126U 22138P   26171.37732942  .00000111  00000+0  24489-3 0  9990
2 54126  87.9173 304.3392 0001603 111.4537 248.6767 13.19725056177252
ONEWEB-0509             
1 54127U 22138Q   26171.42787162 -.00000045  00000+0 -14413-3 0  9995
2 54127  87.9184 304.3191 0001749 101.8173 258.3156 13.19725074177230
ONEWEB-0510             
1 54128U 22138R   26171.31380281  .00000043  00000+0  72585-4 0  9996
2 54128  87.9199 273.8129 0002384  93.8107 266.3299 13.20772806179697
ONEWEB-0511             
1 54129U 22138S   26171.34890059  .00000036  00000+0  56868-4 0  9997
2 54129  87.9180 304.3373 0001683  91.9882 268.1444 13.19726064177254
ONEWEB-0512             
1 54130U 22138T   26171.41681696  .00000042  00000+0  73765-4 0  9994
2 54130  87.9170 304.3287 0001548  98.7298 261.4010 13.19724839177236
ONEWEB-0513             
1 54131U 22138U   26171.34531837  .00000065  00000+0  12855-3 0  9995
2 54131  87.9182 304.2868 0000998  81.0977 279.0269 13.20268539177133
ONEWEB-0514             
1 54132U 22138V   26171.35679655  .00000034  00000+0  52873-4 0  9999
2 54132  87.9183 304.3349 0001988  96.7794 263.3565 13.19724888177249
ONEWEB-0515             
1 54133U 22138W   26171.30033620  .00000101  00000+0  21602-3 0  9991
2 54133  87.9202 273.8102 0002790 107.7794 252.3644 13.20770791179710
ONEWEB-0516             
1 54134U 22138X   26171.40733462  .00000067  00000+0  13605-3 0  9999
2 54134  87.9172 304.3308 0001877 103.9918 256.1424 13.19725777177253
ONEWEB-0517             
1 54135U 22138Y   26171.38680793  .00000103  00000+0  22568-3 0  9994
2 54135  87.9180 304.3275 0001904  89.8860 270.2491 13.19725135177254
ONEWEB-0518             
1 54136U 22138Z   26171.40576853  .00000050  00000+0  93732-4 0  9992
2 54136  87.9172 304.3331 0001895 105.4690 254.6652 13.19727811177252
ONEWEB-0519             
1 54137U 22138AA  26171.35521948  .00000000  00000+0 -32703-4 0  9999
2 54137  87.9184 304.3347 0001891  92.8657 267.2692 13.19726483177259
ONEWEB-0520             
1 54138U 22138AB  26171.38997318  .00000070  00000+0  14349-3 0  9992
2 54138  87.9182 304.3279 0001640 103.9614 256.1701 13.19725000177242
ONEWEB-0521             
1 54139U 22138AC  26171.34731839  .00000047  00000+0  85366-4 0  9995
2 54139  87.9184 304.3249 0001921  92.4174 267.7178 13.19725198177184
ONEWEB-0522             
1 54140U 22138AD  26171.40260785  .00000064  00000+0  12824-3 0  9998
2 54140  87.9184 304.3164 0001718 100.1474 259.9853 13.19724516177238
ONEWEB-0523             
1 54141U 22138AE  26171.28686477  .00000058  00000+0  10952-3 0  9998
2 54141  87.9198 273.8226 0002789  96.0062 264.1389 13.20771596179717
ONEWEB-0524             
1 54142U 22138AF  26171.27676715  .00000049  00000+0  88700-4 0  9999
2 54142  87.9197 273.8217 0002716 113.4251 246.7168 13.20771476179719
ONEWEB-0525             
1 54143U 22138AG  26171.34573472  .00000081  00000+0  17071-3 0  9992
2 54143  87.9178 304.3352 0001613 109.3401 250.7906 13.19725147177248
ONEWEB-0526             
1 54144U 22138AH  26171.37890479  .00000049  00000+0  90836-4 0  9990
2 54144  87.9185 304.3290 0001825 103.8373 256.2963 13.19725996177224
ONEWEB-0529             
1 54145U 22138AJ  26171.38206904  .00000088  00000+0  18664-3 0  9997
2 54145  87.9175 304.3371 0001688 104.7058 255.4262 13.19725005177247
