OBJECT_NAME,OBJECT_ID,EPOCH,MEAN_MOTION,ECCENTRICITY,INCLINATION,RA_OF_ASC_NODE,ARG_OF_PERICENTER,MEAN_ANOMALY,EPHEMERIS_TYPE,CLASSIFICATION_TYPE,NORAD_CAT_ID,ELEMENT_SET_NO,REV_AT_EPOCH,BSTAR,MEAN_MOTION_DOT,MEAN_MOTION_DDOT
ONEWEB-0495,2022-138C,2026-06-20T09:32:55.784832,13.19725362,.0001365,87.9172,304.3310,113.9166,246.2110,0,U,54115,999,17724,.29524E-3,.131E-5,0
ONEWEB-0497,2022-138D,2026-06-20T08:01:57.064800,13.19724613,.0001822,87.9180,304.3356,101.4722,258.6615,0,U,54116,999,17722,.13395E-3,.67E-6,0
ONEWEB-0499,2022-138E,2026-06-20T09:27:14.152320,13.19726800,.0001634,87.9170,304.3327,99.6652,260.4665,0,U,54117,999,17724,.17479E-3,.83E-6,0
ONEWEB-0500,2022-138F,2026-06-20T09:30:39.202848,13.19724849,.0001998,87.9174,304.3265,100.6616,259.4742,0,U,54118,999,17725,.31573E-3,.139E-5,0
ONEWEB-0501,2022-138G,2026-06-20T08:24:41.624064,13.19723616,.0001489,87.9182,304.3354,107.5506,252.5789,0,U,54119,999,17722,.74982E-4,.43E-6,0
ONEWEB-0502,2022-138H,2026-06-20T08:04:12.964224,13.19723777,.0001602,87.9182,304.3274,97.6155,262.5160,0,U,54120,999,17724,.90009E-4,.49E-6,0
ONEWEB-0503,2022-138J,2026-06-20T09:37:28.732800,13.19725456,.0001916,87.9185,304.3205,91.3899,268.7453,0,U,54121,999,17724,.16778E-3,.8E-6,0
ONEWEB-0504,2022-138K,2026-06-20T09:19:17.234688,13.19725508,.000165,87.9181,304.3275,97.8200,262.3120,0,U,54122,999,17725,.2216E-3,.102E-5,0
ONEWEB-0505,2022-138L,2026-06-20T09:14:44.151936,13.19726153,.0001399,87.9181,304.3289,103.1844,256.9445,0,U,54123,999,17723,.17194E-3,.82E-6,0
ONEWEB-0506,2022-138M,2026-06-20T10:27:30.515040,13.19724578,.0001578,87.9182,304.3164,103.8225,256.3083,0,U,54124,999,17723,.55008E-4,.35E-6,0
ONEWEB-0507,2022-138N,2026-06-20T09:07:54.812064,13.19725770,.0001711,87.9173,304.3391,103.3346,256.7978,0,U,54125,999,17727,.20613E-3,.95E-6,0
ONEWEB-0508,2022-138P,2026-06-20T09:03:21.261888,13.19725056,.0001603,87.9173,304.3392,111.4537,248.6767,0,U,54126,999,17725,.24489E-3,.111E-5,0
ONEWEB-0509,2022-138Q,2026-06-20T10:16:08.107968,13.19725074,.0001749,87.9184,304.3191,101.8173,258.3156,0,U,54127,999,17723,-.14413E-3,-.45E-6,0
ONEWEB-0510,2022-138R,2026-06-20T07:31:52.562784,13.20772806,.0002384,87.9199,273.8129,93.8107,266.3299,0,U,54128,999,17969,.72585E-4,.43E-6,0
ONEWEB-0511,2022-138S,2026-06-20T08:22:25.010976,13.19726064,.0001683,87.9180,304.3373,91.9882,268.1444,0,U,54129,999,17725,.56868E-4,.36E-6,0
ONEWEB-0512,2022-138T,2026-06-20T10:00:12.985344,13.19724839,.0001548,87.9170,304.3287,98.7298,261.4010,0,U,54130,999,17723,.73765E-4,.42E-6,0
ONEWEB-0513,2022-138U,2026-06-20T08:17:15.507168,13.20268539,.0000998,87.9182,304.2868,81.0977,279.0269,0,U,54131,999,17713,.12855E-3,.65E-6,0
ONEWEB-0514,2022-138V,2026-06-20T08:33:47.221920,13.19724888,.0001988,87.9183,304.3349,96.7794,263.3565,0,U,54132,999,17724,.52873E-4,.34E-6,0
ONEWEB-0515,2022-138W,2026-06-20T07:12:29.047680,13.20770791,.000279,87.9202,273.8102,107.7794,252.3644,0,U,54133,999,17971,.21602E-3,.101E-5,0
ONEWEB-0516,2022-138X,2026-06-20T09:46:33.711168,13.19725777,.0001877,87.9172,304.3308,103.9918,256.1424,0,U,54134,999,17725,.13605E-3,.67E-6,0
ONEWEB-0517,2022-138Y,2026-06-20T09:17:00.205152,13.19725135,.0001904,87.9180,304.3275,89.8860,270.2491,0,U,54135,999,17725,.22568E-3,.103E-5,0
ONEWEB-0518,2022-138Z,2026-06-20T09:44:18.400992,13.19727811,.0001895,87.9172,304.3331,105.4690,254.6652,0,U,54136,999,17725,.93732E-4,.5E-6,0
ONEWEB-0519,2022-138AA,2026-06-20T08:31:30.963072,13.19726483,.0001891,87.9184,304.3347,92.8657,267.2692,0,U,54137,999,17725,-.32703E-4,0,0
ONEWEB-0520,2022-138AB,2026-06-20T09:21:33.682752,13.19725000,.000164,87.9182,304.3279,103.9614,256.1701,0,U,54138,999,17724,.14349E-3,.7E-6,0
ONEWEB-0521,2022-138AC,2026-06-20T08:20:08.308896,13.19725198,.0001921,87.9184,304.3249,92.4174,267.7178,0,U,54139,999,17718,.85366E-4,.47E-6,0
ONEWEB-0522,2022-138AD,2026-06-20T09:39:45.318240,13.19724516,.0001718,87.9184,304.3164,100.1474,259.9853,0,U,54140,999,17723,.12824E-3,.64E-6,0
ONEWEB-0523,2022-138AE,2026-06-20T06:53:05.116128,13.20771596,.0002789,87.9198,273.8226,96.0062,264.1389,0,U,54141,999,17971,.10952E-3,.58E-6,0
ONEWEB-0524,2022-138AF,2026-06-20T06:38:32.681760,13.20771476,.0002716,87.9197,273.8217,113.4251,246.7168,0,U,54142,999,17971,.887E-4,.49E-6,0
ONEWEB-0525,2022-138AG,2026-06-20T08:17:51.479808,13.19725147,.0001613,87.9178,304.3352,109.3401,250.7906,0,U,54143,999,17724,.17071E-3,.81E-6,0
ONEWEB-0526,2022-138AH,2026-06-20T09:05:37.373856,13.19725996,.0001825,87.9185,304.3290,103.8373,256.2963,0,U,54144,999,17722,.90836E-4,.49E-6,0
ONEWEB-0529,2022-138AJ,2026-06-20T09:10:10.765056,13.19725005,.0001688,87.9175,304.3371,104.7058,255.4262,0,U,54145,999,17724,.18664E-3,.88E-6,0
